#dP2023  3 28 12  0  0.00000000      96 __u+U ITR00 EXT  IAC
## 2255 216000.00000000   900.00000000 60031 0.5000000000000
+  120   C06C07C08C09C10C11C12C13C14C16C19C20C21C22C23C24C25
+        C26C27C28C29C30C32C33C34C35C36C37C38C39C40C41C42C43
+        C44C45C46E01E02E03E04E05E07E08E09E10E11E12E13E14E15
+        E18E19E21E24E25E26E27E30E31E33E34E36G01G02G03G04G05
+        G06G07G08G09G10G11G12G13G14G15G16G17G18G19G20G21G22
+        G23G24G25G26G27G28G29G30G31G32J02J03J04R01R02R03R04
+        R05R07R08R09R11R12R13R14R15R16R17R18R19R20R21R22R24
+        R25  0  0  0  0  0  0  0  0  0  0  0  0  0  0  0  0
++        11 10  9 11  8  8 10 10  8 10  7  8  6  7  9  7  8
++         8  8  7  7  8  7  8  8  8  9  9  8 10 10  8  7  8
++         8  9 10  6  7  7  7  6  7  7  7  7  6  7  7  6  8
++         5  5  7  7  7  7  7  8  7  6  7  6  6  6  6  7  7
++         7  8  7  6  7  7  6  7  5  7  7  6  7  8  8  6  7
++         6  8  6  7  7  9  5  7  7  7  7  9 10  6  7  8  8
++         8  6  7  7  8  7  9  8  8  8 10  7  8  9  8  8 10
++         9  0  0  0  0  0  0  0  0  0  0  0  0  0  0  0  0
%c M  cc GPS ccc cccc cccc cccc cccc ccccc ccccc ccccc ccccc
%c cc cc ccc ccc cccc cccc cccc cccc ccccc ccccc ccccc ccccc
%f  0.0000000  0.000000000  0.00000000000  0.000000000000000
%f  0.0000000  0.000000000  0.00000000000  0.000000000000000
%i    0    0    0    0      0      0      0      0         0
%i    0    0    0    0      0      0      0      0         0
/* IAC                                ULTRA-RAPID PREDICTION
/* S/V CLOCKS ARE ALIGNED TO GNSS TIME                      
/* G:C1WC2W R:C1PC2P E:C1XC5X C:C2IC6I J:C1CC2S             
/* PCV:IGS20_2247 OL/AL:FES2004  NONE     YN ORB:CoN CLK:CoN
*  2023 03 29  7 45  0.00000000
PC06  -1997.635721  30543.717707 -28858.912485   -197.060395
PC07 -16819.776036  28261.412560  26333.845168    -90.321762
PC08 -13126.431266  40156.310899   -889.264887    513.002029
PC09   5927.775914  34751.389193 -22312.392711    828.395517
PC10  -7824.474743  28786.868237  29935.928187    -20.263076
PC11   8567.467742  21445.629942  15740.483540    732.334782
PC12  -9012.595286  12557.905317  23268.296008    536.566617
PC13  -8375.660720  40889.547818  -6707.653489    240.458293
PC14    -11.417822  16474.868358 -22492.425843     52.598005
PC16  -3834.563901  28650.349678 -30364.817209    125.233332
PC19 -10542.787001 -12528.352799  22625.172839   -897.907024
PC20   8903.655551 -17668.479176  19712.436439    654.906332
PC21 -24518.969216  12465.822237  -4601.954025   -908.949330
PC22 -24886.904062     71.782875  12600.523924   -562.455888
PC23  15364.611637   6187.472405  22457.668697   -895.761228
PC24  -7039.310718  26808.197549  -3372.228991   -236.904242
PC25   7164.409572  22784.424572  14437.218750     96.255385
PC26 -14955.960753  15939.136084 -17385.476199    -98.616251
PC27  16340.163280  -6022.289329 -21823.024858    117.588436
PC28  23588.714764   9631.107647 -11378.786106     86.356407
PC29 -17692.865931 -20315.235599  -7301.882741     99.865793
PC30   -234.770518 -18617.034979 -20803.885146      0.662172
PC32  24451.911338 -12668.479945   4587.800488   -589.620903
PC33  10576.302351  12497.718619 -22590.613077   -871.502738
PC34   1455.095852  19156.022063  20217.506403    137.006280
PC35 -24043.818442  -9568.937118  10489.291666    655.938592
PC36  -6175.449285 -23383.207985 -13898.870739   -534.654020
PC37  15655.333829 -14250.476975  18178.540958   -796.062314
PC38 -16991.701939  37903.925184   7667.597511     68.145372
PC39  -8390.712366  24620.928408 -33096.853117     -2.356504
PC40 -22935.811366  22012.049562  27561.130922    -18.855694
PC41  24647.972487    256.374296 -13034.041062   -782.365637
PC42 -10225.489857  17707.871823 -18928.485728   -763.371379
PC43  17044.554154  20570.804042   8008.955775     14.064579
PC44 -16373.291012   6503.030273  21635.318882     59.097693
PC45 -15370.194161  -5648.599811 -22599.394153    -78.208234
PC46   5969.527030 -27181.412329   1764.940165    -43.192812
PE01 -23165.695154  14574.318662 -11290.399634    -10.533905
PE02  23106.683355 -14949.144705  10865.087628     29.151624
PE03  25428.203038  -5227.799183  14235.264862   -663.857533
PE04  -8183.454270  15481.373562 -23853.107866    -88.756585
PE05  28110.563985   8360.537960  -4008.300194    -81.928942
PE07 -14124.834039 -16914.776227  19768.370007    -33.480231
PE08   8385.741553 -15290.746999  23924.302220    -58.725387
PE09  14020.861383  16799.968556 -19932.159962   -885.774358
PE10   4415.228865  28160.864792   7963.855950   -522.532562
PE11  11178.359134  27274.231121  -2581.610449   1418.051188
PE12  -2600.687507  24616.295200  16209.202397   -477.127618
PE13 -10747.077175 -27534.601954   1741.092453    -18.101145
PE14 -19970.402075 -13966.460113  -8807.749285    181.817856
PE15   2734.811366 -24430.613161 -16492.565292    -10.755382
PE18  30314.206749   6782.632575  -3679.548601   -228.352856
PE19 -26804.878937   3254.845209 -12119.268583  -2894.779950
PE21 -18759.557994  -2306.100415 -22788.737526   -520.248282
PE24   2567.969342  19811.794191  21829.687902  -1191.364869
PE25  18567.386379   2638.230466  22897.609288   -602.244109
PE26 -17944.384189 -13679.304427  19166.295981     59.378155
PE27  -3372.513335 -19268.253056 -22216.267379    -11.815359
PE30  14356.455689 -24607.712073  -8019.171707    -49.193045
PE31 -13855.657299  24719.939886   8562.007169   -519.834361
PE33 -14514.388614   6902.741845  24859.401188   -447.781040
PE34  14431.473416  -7122.377019 -24847.614342    -37.382245
PE36  17766.152323  14465.524359 -18730.798917    -33.283726
PG01 -14657.570597    689.377503  21840.857823    198.200172
PG02  13506.678854  -6052.704593 -21442.744898   -610.733368
PG03 -21199.979474  10197.110578  12088.359297   -340.882279
PG04 -24135.132637   1144.867474 -11145.377579      3.937294
PG05  15513.218589   4660.696744 -21239.759309   -121.308894
PG06   4870.583695  25846.160056   3357.373977    584.378955
PG07  -9281.597903  15852.263077 -18560.167482    213.191975
PG08 -25983.791874  -6420.538577   -884.244817   -115.170298
PG09 -16494.094507   9672.807081 -18524.045401   -191.144728
PG10   7562.468186 -21317.328421  13843.718694    -30.543171
PG11  12307.289693  21112.561092 -10436.995193   -145.001906
PG12  21612.955232  -6938.932346  13431.245544   -357.314915
PG13  22041.100835  13636.273596  -6444.017600    497.703072
PG14 -10611.260058  21516.542744  11250.990014      9.208025
PG15  26460.289985   3581.778170  -1006.912942     25.786245
PG16 -13163.796804  -8539.138950 -21783.270610   -512.514197
PG17  -2376.623801  15032.070259  22192.780686    707.951302
PG18   6762.470539 -19266.196556 -16904.684629   -200.347467
PG19   8726.515534  16680.024256  18621.750192    296.404677
PG20   8568.902465  14024.001500 -20866.112723    442.126528
PG21 -17441.660219  -8178.738062  19198.956923    154.321720
PG22 -11799.398044 -16803.760996  17382.608804    454.205282
PG23  16297.088999 -20686.075097   2782.678321     13.373152
PG24  16997.516216   3286.661739  19891.365964   -130.654341
PG25  20153.970697 -16257.407001   4912.931697    431.445398
PG26  -2924.458649 -18304.189139 -19017.133230    241.959165
PG27 -20644.470528 -13031.191269 -11202.979677     70.671574
PG28  -4549.582263 -25652.093725   5157.198954     54.468341
PG29  19979.697996  -5285.547304 -16779.388914   -593.084851
PG30   -971.938722  24377.667384 -10066.913159   -524.884368
PG31  -7750.477788 -25114.150193  -1599.685337   -212.723051
PG32  -1745.285513 -15870.321605  21428.689348   -436.807694
PJ02 -28764.848430  30856.243555   2886.814031     -1.332808
PJ03 -25931.703288  22661.629299  29405.473212      1.503790
PJ04 -33973.149717  23130.893455  -4497.051584     94.151749
PR01 -21774.265266   9095.795311  -9660.496023     25.650248
PR02  -5949.550691  11436.621847 -21972.498675    -23.048497
PR03  12994.887099   7581.937296 -20530.455829     75.041713
PR04  24268.791285   -381.245301  -7794.212887    181.223896
PR05  22384.579253  -8034.462593   9209.863809    110.090354
PR07 -13815.912052  -7302.076851  20221.797559     52.708956
PR08 -24336.599954    505.538764   7736.650707    -70.120268
PR09   5974.389710 -24464.745127  -4292.313101    111.750419
PR11 -11234.532581   -734.754549 -22880.949521    -26.392908
PR12 -12961.465620  17693.453915 -13018.482210     26.024476
PR13  -7160.857788  24356.500639   2479.511567    -33.410123
PR14   3811.597983  16738.461553  18866.518006     24.476898
PR15  11717.553894   -384.722427  22668.338619     90.158454
PR16  12806.716329 -17562.556750  13379.938470     12.914334
PR17  15649.851984  20099.218482   1629.625786    616.454122
PR18  17618.904581  11474.235550 -14386.218682     73.831134
PR19  11511.396720  -1541.868375 -22711.384960   -227.062178
PR20  -3490.519596 -17751.066790 -18000.151804    -90.156866
PR21 -16157.876156 -19725.932309    127.015905   -383.917032
PR22 -17325.332904 -11252.640975  15001.415343     76.948429
PR24   4239.065428  18134.753112  17448.931796    157.606799
PR25 -14563.488477 -20851.972330  -1843.802962     59.072255
EOF
